NORAD_CAT_ID,OBJECT_NAME,OBJECT_TYPE,EPOCH,MEAN_MOTION,ECCENTRICITY,INCLINATION,RA_OF_ASC_NODE,ARG_OF_PERICENTER,MEAN_ANOMALY,BSTAR,MEAN_MOTION_DOT,MEAN_MOTION_DDOT,TLE_LINE0,TLE_LINE1,TLE_LINE2,SEMIMAJOR_AXIS,PERIOD,APOGEE,PERIGEE,DECAYED
53916.0,STARLINK-5051,PAYLOAD,2022-10-16 20:00:01,15.73203125,0.000159,53.2212,144.6585,132.9253,203.0449,-0.00031531,-0.00044645,0.0,0 STARLINK-5051,1 53916U 22119AG  22289.83334491 -.00044645  00000-0 -31531-3 0  9998,2 53916  53.2212 144.6585 0001590 132.9253 203.0449 15.73203125  3873,6727.886,91.533,350.821,348.682,0.0
53916.0,STARLINK-5051,PAYLOAD,2022-10-16 22:00:00,15.73164276,0.0001536,53.2208,144.2473,131.0104,317.1993,0.00023866,0.00032955,0.0,0 STARLINK-5051,1 53916U 22119AG  22289.91667824  .00032955  00000-0  23866-3 0  9997,2 53916  53.2208 144.2473 0001536 131.0104 317.1993 15.73164276  1305,6727.996999999999,91.535,350.895,348.829,0.0
53916.0,STARLINK-5051,PAYLOAD,2022-10-17 12:00:00,15.7315958,0.0001757,53.2214,141.3575,135.1227,18.7031,0.00086828,0.00122822,0.0,0 STARLINK-5051,1 53916U 22119AG  22290.50001157  .00122822  00000-0  86828-3 0  9995,2 53916  53.2214 141.3575 0001757 135.1227  18.7031 15.73159580  3984,6728.01,91.536,351.05800000000005,348.6930000000001,0.0
53916.0,STARLINK-5051,PAYLOAD,2022-10-17 14:00:01,15.731964499999998,0.0001810999999999,53.221,140.9457,135.1795,130.8643,0.00059195,0.00083272,0.0,0 STARLINK-5051,1 53916U 22119AG  22290.58334491  .00083272  00000-0  59195-3 0  9995,2 53916  53.2210 140.9457 0001811 135.1795 130.8643 15.73196450  1301,6727.905,91.533,350.98900000000015,348.552,0.0
53916.0,STARLINK-5051,PAYLOAD,2022-10-17 20:00:01,15.73247587,0.0001607,53.2219,139.7102,130.1754,112.5479,-0.00066702,-0.00093392,0.0,0 STARLINK-5051,1 53916U 22119AG  22290.83334491 -.00093392  00000-0 -66702-3 0  9991,2 53916  53.2219 139.7102 0001607 130.1754 112.5479 15.73247587  4031,6727.76,91.53,350.706,348.543,0.0
53916.0,STARLINK-5051,PAYLOAD,2022-10-17 22:00:00,15.73227869,0.0001563,53.222,139.2982,128.645,226.3226,-0.00057302,-0.00080373,0.0,0 STARLINK-5051,1 53916U 22119AG  22290.91667824 -.00080373  00000-0 -57302-3 0  9990,2 53916  53.2220 139.2982 0001563 128.6450 226.3226 15.73227869  1302,6727.816,91.532,350.732,348.629,0.0
53916.0,STARLINK-5051,PAYLOAD,2022-10-18 12:00:00,15.73131538,0.0001545,53.2218,136.41,140.8192,279.7541,0.00036697,0.00051044,0.0,0 STARLINK-5051,1 53916U 22119AG  22291.50001157  .00051044  00000-0  36697-3 0  9992,2 53916  53.2218 136.4100 0001545 140.8192 279.7541 15.73131538  4143,6728.09,91.537,350.995,348.916,0.0
53916.0,STARLINK-5051,PAYLOAD,2022-10-18 14:00:01,15.73140006,0.000153,53.222,135.998,142.3315,30.4509,0.00035688,0.00049633,0.0,0 STARLINK-5051,1 53916U 22119AG  22291.58334491  .00049633  00000-0  35688-3 0  9990,2 53916  53.2220 135.9980 0001530 142.3315  30.4509 15.73140006  1305,6728.066,91.537,350.961,348.902,0.0
53916.0,STARLINK-5051,PAYLOAD,2022-10-18 20:00:01,15.73204314,0.0001809,53.2173,134.7659,126.3827,23.1075,-1.4790000000000004e-06,-8.28e-06,0.0,0 STARLINK-5051,1 53916U 22119AG  22291.83334491 -.00000828  00000-0 -14790-5 0  9996,2 53916  53.2173 134.7659 0001809 126.3827  23.1075 15.73204314  4191,6727.8830000000025,91.533,350.965,348.531,0.0
53916.0,STARLINK-5051,PAYLOAD,2022-10-18 22:00:00,15.73204662,0.0001785,53.2174,134.35399999999998,126.0057,135.7177,-4.7176e-06,-1.283e-05,0.0,0 STARLINK-5051,1 53916U 22119AG  22291.91667824 -.00001283  00000-0 -47176-5 0  9994,2 53916  53.2174 134.3540 0001785 126.0057 135.7177 15.73204662  1301,6727.882,91.533,350.9480000000001,348.546,0.0
53916.0,STARLINK-5051,PAYLOAD,2022-10-19 14:00:01,15.73243357,0.0001421,53.222,131.0504,140.7927,298.7527,-5.1858e-05,-7.905e-05,0.0,0 STARLINK-5051,1 53916U 22119AG  22292.58334491 -.00007905  00000-0 -51858-4 0  9997,2 53916  53.2220 131.0504 0001421 140.7927 298.7527 15.73243357  1306,6727.772,91.531,350.593,348.681,0.0
53916.0,STARLINK-5051,PAYLOAD,2022-10-19 22:00:00,15.73243397,0.0001325,53.2199,129.4043,136.5907,31.9364,-0.00060526,-0.00084869,0.0,0 STARLINK-5051,1 53916U 22119AG  22292.91667824 -.00084869  00000-0 -60526-3 0  9998,2 53916  53.2199 129.4043 0001325 136.5907  31.9364 15.73243397  4363,6727.771,91.531,350.528,348.745,0.0
53916.0,STARLINK-5051,PAYLOAD,2022-10-20 06:00:00,15.73246904,0.0001161,53.2218,127.7525,138.1283,119.3364,-0.00059287,-0.00083171,0.0,0 STARLINK-5051,1 53916U 22119AG  22293.25001157 -.00083171  00000-0 -59287-3 0  9994,2 53916  53.2218 127.7525 0001161 138.1283 119.3364 15.73246904  4418,6727.761,91.53,350.408,348.845,0.0
53916.0,STARLINK-5051,PAYLOAD,2022-10-20 14:00:01,15.73224378,0.0001339,53.2218,126.1028,135.47299999999998,210.9259,-0.0002045999999999,-0.00029264,0.0,0 STARLINK-5051,1 53916U 22119AG  22293.58334491 -.00029264  00000-0 -20460-3 0  9994,2 53916  53.2218 126.1028 0001339 135.4730 210.9259 15.73224378  4460,6727.826,91.532,350.592,348.79,0.0
53916.0,STARLINK-5051,PAYLOAD,2022-10-20 22:00:00,15.73153728,0.0001231999999999,53.2206,124.4561,123.7129,311.6426,0.00058342,0.00081897,0.0,0 STARLINK-5051,1 53916U 22119AG  22293.91667824  .00081897  00000-0  58342-3 0  9998,2 53916  53.2206 124.4561 0001232 123.7129 311.6426 15.73153728  1309,6728.026999999999,91.536,350.721,349.06300000000016,0.0
53916.0,STARLINK-5051,PAYLOAD,2022-10-21 06:00:00,15.73245123,0.0001184,53.2208,122.8047,134.3738,29.8813,-0.00037946,-0.00053638,0.0,0 STARLINK-5051,1 53916U 22119AG  22294.25001157 -.00053638  00000-0 -37946-3 0  9998,2 53916  53.2208 122.8047 0001184 134.3738  29.8813 15.73245123  4573,6727.767,91.531,350.42800000000005,348.835,0.0
53916.0,STARLINK-5051,PAYLOAD,2022-10-21 12:00:00,15.73207101,0.0001208,53.2212,121.5666,140.4893,0.5215,0.00040707,0.00056914,0.0,0 STARLINK-5051,1 53916U 22119AG  22294.50001157  .00056914  00000-0  40707-3 0  9993,2 53916  53.2212 121.5666 0001208 140.4893   0.5215 15.73207101  4619,6727.875,91.533,350.55300000000005,348.927,0.0
53916.0,STARLINK-5051,PAYLOAD,2022-10-21 14:00:01,15.73217864,0.0001196,53.2208,121.1547,138.5333,114.7132,0.0003674,0.00051297,0.0,0 STARLINK-5051,1 53916U 22119AG  22294.58334491  .00051297  00000-0  36740-3 0  9992,2 53916  53.2208 121.1547 0001196 138.5333 114.7132 15.73217864  1307,6727.844,91.532,350.514,348.905,0.0
53916.0,STARLINK-5051,PAYLOAD,2022-10-21 20:00:01,15.7324711,0.000107,53.2213,119.9195,122.5239,107.4213,-0.00055005,-0.00077263,0.0,0 STARLINK-5051,1 53916U 22119AG  22294.83334491 -.00077263  00000-0 -55005-3 0  9998,2 53916  53.2213 119.9195 0001070 122.5239 107.4213 15.73247110  4664,6727.761,91.53,350.346,348.906,0.0
53916.0,STARLINK-5051,PAYLOAD,2022-10-21 22:00:00,15.73204083,0.0001078,53.2214,119.5075,120.4843,221.7128,-6.755599999999999e-06,-1.568e-05,0.0,0 STARLINK-5051,1 53916U 22119AG  22294.91667824 -.00001568  00000-0 -67556-5 0  9997,2 53916  53.2214 119.5075 0001078 120.4843 221.7128 15.73204083  1309,6727.884,91.533,350.474,349.023,0.0
53916.0,STARLINK-5051,PAYLOAD,2022-10-22 06:00:00,15.73216279,0.0001193999999999,53.2212,117.8564,123.8965,307.2345,-0.00045168,-0.00063576,0.0,0 STARLINK-5051,1 53916U 22119AG  22295.25001157 -.00063576  00000-0 -45168-3 0  9996,2 53916  53.2212 117.8564 0001194 123.8965 307.2345 15.73216279  4733,6727.849,91.532,350.517,348.91,0.0
53916.0,STARLINK-5051,PAYLOAD,2022-10-22 12:00:00,15.73163633,0.0001346,53.2211,116.6189,123.8348,283.9908,0.00055471,0.00077832,0.0,0 STARLINK-5051,1 53916U 22119AG  22295.50001157  .00077832  00000-0  55471-3 0  9990,2 53916  53.2211 116.6189 0001346 123.8348 283.9908 15.73163633  4770,6727.999,91.535,350.769,348.958,0.0
53916.0,STARLINK-5051,PAYLOAD,2022-10-22 14:00:01,15.73208294,0.0001318,53.2211,116.2071,123.981,36.0599,-3.7659e-05,-5.903e-05,0.0,0 STARLINK-5051,1 53916U 22119AG  22295.58334491 -.00005903  00000-0 -37659-4 0  9999,2 53916  53.2211 116.2071 0001318 123.9810  36.0599 15.73208294  1302,6727.871999999999,91.533,350.62300000000016,348.85,0.0
53916.0,STARLINK-5051,PAYLOAD,2022-10-22 20:00:01,15.73205869,9.93e-05,53.2206,114.9716,115.7222,21.0337,-4.441e-06,-1.243e-05,0.0,0 STARLINK-5051,1 53916U 22119AG  22295.83334491 -.00001243  00000-0 -44410-5 0  9994,2 53916  53.2206 114.9716 0000993 115.7222  21.0337 15.73205869  4820,6727.878000000002,91.533,350.412,349.075,0.0
53916.0,STARLINK-5051,PAYLOAD,2022-10-22 22:00:00,15.73163951,9.42e-05,53.2206,114.5596,113.6298,135.3738,0.00064774,0.00091135,0.0,0 STARLINK-5051,1 53916U 22119AG  22295.91667824  .00091135  00000-0  64774-3 0  9992,2 53916  53.2206 114.5596 0000942 113.6298 135.3738 15.73163951  1305,6727.998000000001,91.535,350.497,349.22900000000016,0.0
53916.0,STARLINK-5051,PAYLOAD,2022-10-23 06:00:00,15.73238036,9.45e-05,53.2205,112.9082,127.4458,210.4896,0.0004837,0.00067925,0.0,0 STARLINK-5051,1 53916U 22119AG  22296.25001157  .00067925  00000-0  48370-3 0  9995,2 53916  53.2205 112.9082 0000945 127.4458 210.4896 15.73238036  4883,6727.7869999999975,91.531,350.288,349.016,0.0
53916.0,STARLINK-5051,PAYLOAD,2022-10-23 12:00:00,15.732732,0.0001137999999999,53.2206,111.6707,124.2768,190.3774,-0.00025965,-0.00037013,0.0,0 STARLINK-5051,1 53916U 22119AG  22296.50001157 -.00037013  00000-0 -25965-3 0  9995,2 53916  53.2206 111.6707 0001138 124.2768 190.3774 15.73273200  4926,6727.686,91.529,350.31699999999995,348.786,0.0
53916.0,STARLINK-5051,PAYLOAD,2022-10-23 14:00:01,15.73275768,0.0001131,53.2207,111.2589,120.2782,306.6266,-0.00040512,-0.00057273,0.0,0 STARLINK-5051,1 53916U 22119AG  22296.58334491 -.00057273  00000-0 -40512-3 0  9998,2 53916  53.2207 111.2589 0001131 120.2782 306.6266 15.73275768  1304,6727.679,91.529,350.305,348.783,0.0
53916.0,STARLINK-5051,PAYLOAD,2022-10-23 22:00:00,15.73222239,0.0001102,53.2207,109.611,103.6542,52.2498,-0.00030291,-0.00042954,0.0,0 STARLINK-5051,1 53916U 22119AG  22296.91667824 -.00042954  00000-0 -30291-3 0  9997,2 53916  53.2207 109.6110 0001102 103.6542  52.2498 15.73222239  1308,6727.831999999999,91.532,350.43800000000016,348.955,0.0
